start=new Date('2023-02-06T00:00:00.000Z').valueOf();
sats=[{"GP_ID":"224556433","OBJECT_NAME":"STARLINK-2375","COUNTRY_CODE":"US","INCLINATION":"53.0536","PERIAPSIS":"546.446","MEAN_MOTION":"15.06396136","MEAN_MOTION_DOT":"0.00002550","TLE_LINE1":"1 47914U 21021BG  23036.94437530  .00002550  00000-0  19003-3 0  9998","APOAPSIS":"548.005","EPOCH":"2023-02-05T22:39:54.025920","LAUNCH_DATE":"2021-03-14","SITE":"AFETR","CLASSIFICATION_TYPE":"U","PERIOD":"95.592","NORAD_CAT_ID":"47914","RCS_SIZE":"LARGE","MEAN_ELEMENT_THEORY":"SGP4","ARG_OF_PERICENTER":"105.4242","FILE":"3774172","CENTER_NAME":"EARTH","TLE_LINE2":"2 47914  53.0536 304.2677 0001126 105.4242 254.6872 15.06396136106074","TIME_SYSTEM":"UTC","ELEMENT_SET_NO":"999","ECCENTRICITY":"0.00011260","REV_AT_EPOCH":"10607","OBJECT_ID":"2021-021BG","DECAY_DATE":null,"EPHEMERIS_TYPE":"0","MEAN_MOTION_DDOT":"0.0000000000000","BSTAR":"0.00019003000000","MEAN_ANOMALY":"254.6872","REF_FRAME":"TEME","RA_OF_ASC_NODE":"304.2677","OBJECT_TYPE":"PAYLOAD","SEMIMAJOR_AXIS":"6925.360"},{"LAUNCH_DATE":"2021-03-14","SITE":"AFETR","TLE_LINE1":"1 47915U 21021BH  23036.94299647 -.00000169  00000-0  75800-5 0  9998","MEAN_MOTION_DOT":"-0.00000169","EPOCH":"2023-02-05T22:37:54.895008","APOAPSIS":"548.182","PERIAPSIS":"546.297","MEAN_MOTION":"15.06391574","INCLINATION":"53.0560","OBJECT_NAME":"STARLINK-2376","GP_ID":"224556184","COUNTRY_CODE":"US","RCS_SIZE":"LARGE","MEAN_ELEMENT_THEORY":"SGP4","PERIOD":"95.593","NORAD_CAT_ID":"47915","CLASSIFICATION_TYPE":"U","TLE_LINE2":"2 47915  53.0560 299.2698 0001361 111.2422 248.8712 15.06391574106152","CENTER_NAME":"EARTH","FILE":"3774172","ARG_OF_PERICENTER":"111.2422","REF_FRAME":"TEME","RA_OF_ASC_NODE":"299.2698","SEMIMAJOR_AXIS":"6925.374","OBJECT_TYPE":"PAYLOAD","BSTAR":"0.00000758000000","MEAN_MOTION_DDOT":"0.0000000000000","MEAN_ANOMALY":"248.8712","REV_AT_EPOCH":"10615","EPHEMERIS_TYPE":"0","OBJECT_ID":"2021-021BH","DECAY_DATE":null,"TIME_SYSTEM":"UTC","ECCENTRICITY":"0.00013610","ELEMENT_SET_NO":"999"},{"TIME_SYSTEM":"UTC","ELEMENT_SET_NO":"999","ECCENTRICITY":"0.00011180","REV_AT_EPOCH":"10633","DECAY_DATE":null,"OBJECT_ID":"2021-021BJ","EPHEMERIS_TYPE":"0","MEAN_MOTION_DDOT":"0.0000000000000","BSTAR":"-0.00002778700000","MEAN_ANOMALY":"266.2743","REF_FRAME":"TEME","RA_OF_ASC_NODE":"284.3909","OBJECT_TYPE":"PAYLOAD","SEMIMAJOR_AXIS":"6925.372","ARG_OF_PERICENTER":"93.8373","CENTER_NAME":"EARTH","FILE":"3774172","TLE_LINE2":"2 47916  53.0515 284.3909 0001118  93.8373 266.2743 15.06392239106330","CLASSIFICATION_TYPE":"U","PERIOD":"95.593","NORAD_CAT_ID":"47916","RCS_SIZE":"LARGE","MEAN_ELEMENT_THEORY":"SGP4","GP_ID":"224557435","OBJECT_NAME":"STARLINK-2378","COUNTRY_CODE":"US","INCLINATION":"53.0515","MEAN_MOTION":"15.06392239","PERIAPSIS":"546.463","MEAN_MOTION_DOT":"-0.00000695","TLE_LINE1":"1 47916U 21021BJ  23036.91673101 -.00000695  00000-0 -27787-4 0  9992","APOAPSIS":"548.012","EPOCH":"2023-02-05T22:00:05.559264","LAUNCH_DATE":"2021-03-14","SITE":"AFETR"},{"EPHEMERIS_TYPE":"0","DECAY_DATE":null,"OBJECT_ID":"2021-021BK","REV_AT_EPOCH":"10618","ECCENTRICITY":"0.00010390","ELEMENT_SET_NO":"999","TIME_SYSTEM":"UTC","OBJECT_TYPE":"PAYLOAD","SEMIMAJOR_AXIS":"6925.351","REF_FRAME":"TEME","RA_OF_ASC_NODE":"294.3594","MEAN_ANOMALY":"260.6011","BSTAR":"0.00023923000000","MEAN_MOTION_DDOT":"0.0000000000000","ARG_OF_PERICENTER":"99.5096","TLE_LINE2":"2 47917  53.0541 294.3594 0001039  99.5096 260.6011 15.06399092106181","FILE":"3774172","CENTER_NAME":"EARTH","CLASSIFICATION_TYPE":"U","MEAN_ELEMENT_THEORY":"SGP4","RCS_SIZE":"LARGE","NORAD_CAT_ID":"47917","PERIOD":"95.592","PERIAPSIS":"546.497","MEAN_MOTION":"15.06399092","INCLINATION":"53.0541","COUNTRY_CODE":"US","OBJECT_NAME":"STARLINK-2397","GP_ID":"224557172","SITE":"AFETR","LAUNCH_DATE":"2021-03-14","EPOCH":"2023-02-05T22:09:22.806432","APOAPSIS":"547.936","TLE_LINE1":"1 47917U 21021BK  23036.92318063  .00003284  00000-0  23923-3 0  9999","MEAN_MOTION_DOT":"0.00003284"},{"DECAY_DATE":null,"OBJECT_ID":"2021-021BL","EPHEMERIS_TYPE":"0","REV_AT_EPOCH":"10621","ELEMENT_SET_NO":"999","ECCENTRICITY":"0.00014600","TIME_SYSTEM":"UTC","OBJECT_TYPE":"PAYLOAD","SEMIMAJOR_AXIS":"6925.357","REF_FRAME":"TEME","RA_OF_ASC_NODE":"294.3293","MEAN_ANOMALY":"240.1570","MEAN_MOTION_DDOT":"0.0000000000000","BSTAR":"0.00011016000000","ARG_OF_PERICENTER":"119.9564","TLE_LINE2":"2 47918  53.0538 294.3293 0001460 119.9564 240.1570 15.06397345106215","CENTER_NAME":"EARTH","FILE":"3774172","CLASSIFICATION_TYPE":"U","MEAN_ELEMENT_THEORY":"SGP4","RCS_SIZE":"LARGE","NORAD_CAT_ID":"47918","PERIOD":"95.592","INCLINATION":"53.0538","MEAN_MOTION":"15.06397345","PERIAPSIS":"546.211","COUNTRY_CODE":"US","GP_ID":"224555934","OBJECT_NAME":"STARLINK-2398","SITE":"AFETR","LAUNCH_DATE":"2021-03-14","APOAPSIS":"548.233","EPOCH":"2023-02-05T22:19:59.763648","MEAN_MOTION_DOT":"0.00001360","TLE_LINE1":"1 47918U 21021BL  23036.93055282  .00001360  00000-0  11016-3 0  9995"},{"MEAN_ANOMALY":"261.8728","BSTAR":"0.00001531300000","MEAN_MOTION_DDOT":"0.0000000000000","OBJECT_TYPE":"PAYLOAD","SEMIMAJOR_AXIS":"6925.366","REF_FRAME":"TEME","RA_OF_ASC_NODE":"304.4013","ECCENTRICITY":"0.00013720","ELEMENT_SET_NO":"999","TIME_SYSTEM":"UTC","EPHEMERIS_TYPE":"0","DECAY_DATE":null,"OBJECT_ID":"2021-021BM","REV_AT_EPOCH":"10605","FILE":"3774172","CENTER_NAME":"EARTH","TLE_LINE2":"2 47919  53.0532 304.4013 0001372  98.2417 261.8728 15.06394358106059","ARG_OF_PERICENTER":"98.2417","NORAD_CAT_ID":"47919","PERIOD":"95.592","MEAN_ELEMENT_THEORY":"SGP4","RCS_SIZE":"LARGE","CLASSIFICATION_TYPE":"U","EPOCH":"2023-02-05T21:57:26.188416","APOAPSIS":"548.181","TLE_LINE1":"1 47919U 21021BM  23036.91488644 -.00000053  00000-0  15313-4 0  9990","MEAN_MOTION_DOT":"-0.00000053","SITE":"AFETR","LAUNCH_DATE":"2021-03-14","COUNTRY_CODE":"US","OBJECT_NAME":"STARLINK-2405","GP_ID":"224556684","PERIAPSIS":"546.281","MEAN_MOTION":"15.06394358","INCLINATION":"53.0532"},{"MEAN_MOTION_DOT":"0.00000202","TLE_LINE1":"1 47977U 21024A   23036.26017170  .00000202  00000-0  32463-4 0  9997","APOAPSIS":"548.257","EPOCH":"2023-02-05T06:14:38.834880","LAUNCH_DATE":"2021-03-24","SITE":"AFETR","GP_ID":"224494297","OBJECT_NAME":"STARLINK-2087","COUNTRY_CODE":"US","INCLINATION":"53.0541","MEAN_MOTION":"15.06399287","PERIAPSIS":"546.174","PERIOD":"95.592","NORAD_CAT_ID":"47977","RCS_SIZE":"LARGE","MEAN_ELEMENT_THEORY":"SGP4","CLASSIFICATION_TYPE":"U","FILE":"3773728","CENTER_NAME":"EARTH","TLE_LINE2":"2 47977  53.0541 352.3405 0001504 100.7639 259.3520 15.06399287104621","ARG_OF_PERICENTER":"100.7639","MEAN_MOTION_DDOT":"0.0000000000000","BSTAR":"0.00003246300000","MEAN_ANOMALY":"259.3520","RA_OF_ASC_NODE":"352.3405","REF_FRAME":"TEME","OBJECT_TYPE":"PAYLOAD","SEMIMAJOR_AXIS":"6925.351","TIME_SYSTEM":"UTC","ELEMENT_SET_NO":"999","ECCENTRICITY":"0.00015040","REV_AT_EPOCH":"10462","OBJECT_ID":"2021-024A","DECAY_DATE":null,"EPHEMERIS_TYPE":"0"},{"CLASSIFICATION_TYPE":"U","PERIOD":"95.592","NORAD_CAT_ID":"47978","RCS_SIZE":"LARGE","MEAN_ELEMENT_THEORY":"SGP4","OBJECT_NAME":"STARLINK-1647","GP_ID":"224557178","COUNTRY_CODE":"US","MEAN_MOTION":"15.06397511","PERIAPSIS":"546.211","INCLINATION":"53.0549","TLE_LINE1":"1 47978U 21024B   23036.87849197  .00001489  00000-0  11881-3 0  9995","MEAN_MOTION_DOT":"0.00001489","EPOCH":"2023-02-05T21:05:01.706208","APOAPSIS":"548.232","LAUNCH_DATE":"2021-03-24","SITE":"AFETR","TIME_SYSTEM":"UTC","ECCENTRICITY":"0.00014590","ELEMENT_SET_NO":"999","REV_AT_EPOCH":"10457","EPHEMERIS_TYPE":"0","OBJECT_ID":"2021-024B","DECAY_DATE":null,"BSTAR":"0.00011881000000","MEAN_MOTION_DDOT":"0.0000000000000","MEAN_ANOMALY":"267.3816","RA_OF_ASC_NODE":"359.5623","REF_FRAME":"TEME","OBJECT_TYPE":"PAYLOAD","SEMIMAJOR_AXIS":"6925.356","ARG_OF_PERICENTER":"92.7340","FILE":"3774172","CENTER_NAME":"EARTH","TLE_LINE2":"2 47978  53.0549 359.5623 0001459  92.7340 267.3816 15.06397511104578"},{"COUNTRY_CODE":"US","OBJECT_NAME":"STARLINK-2325","GP_ID":"224555940","MEAN_MOTION":"15.06394821","PERIAPSIS":"546.295","INCLINATION":"53.0533","EPOCH":"2023-02-05T21:10:59.632032","APOAPSIS":"548.164","TLE_LINE1":"1 47979U 21024C   23036.88263463 -.00000610  00000-0 -22093-4 0  9998","MEAN_MOTION_DOT":"-0.00000610","SITE":"AFETR","LAUNCH_DATE":"2021-03-24","CLASSIFICATION_TYPE":"U","NORAD_CAT_ID":"47979","PERIOD":"95.592","MEAN_ELEMENT_THEORY":"SGP4","RCS_SIZE":"LARGE","ARG_OF_PERICENTER":"102.0260","FILE":"3774172","CENTER_NAME":"EARTH","TLE_LINE2":"2 47979  53.0533 294.5553 0001349 102.0260 258.0880 15.06394821105486","ECCENTRICITY":"0.00013490","ELEMENT_SET_NO":"999","TIME_SYSTEM":"UTC","EPHEMERIS_TYPE":"0","DECAY_DATE":null,"OBJECT_ID":"2021-024C","REV_AT_EPOCH":"10548","MEAN_ANOMALY":"258.0880","BSTAR":"-0.00002209300000","MEAN_MOTION_DDOT":"0.0000000000000","SEMIMAJOR_AXIS":"6925.364","OBJECT_TYPE":"PAYLOAD","RA_OF_ASC_NODE":"294.5553","REF_FRAME":"TEME"},{"REF_FRAME":"TEME","RA_OF_ASC_NODE":"274.5818","OBJECT_TYPE":"PAYLOAD","SEMIMAJOR_AXIS":"6925.413","MEAN_MOTION_DDOT":"0.0000000000000","BSTAR":"-0.00014330000000","MEAN_ANOMALY":"276.0546","REV_AT_EPOCH":"10576","DECAY_DATE":null,"OBJECT_ID":"2021-024D","EPHEMERIS_TYPE":"0","TIME_SYSTEM":"UTC","ELEMENT_SET_NO":"999","ECCENTRICITY":"0.00006500","TLE_LINE2":"2 47980  53.0511 274.5818 0000650  84.0517 276.0546 15.06378882105763","CENTER_NAME":"EARTH","FILE":"3774172","ARG_OF_PERICENTER":"84.0517","RCS_SIZE":"LARGE","MEAN_ELEMENT_THEORY":"SGP4","PERIOD":"95.593","NORAD_CAT_ID":"47980","CLASSIFICATION_TYPE":"U","LAUNCH_DATE":"2021-03-24","SITE":"AFETR","MEAN_MOTION_DOT":"-0.00002414","TLE_LINE1":"1 47980U 21024D   23036.90293560 -.00002414  00000-0 -14330-3 0  9992","APOAPSIS":"547.728","EPOCH":"2023-02-05T21:40:13.635840","INCLINATION":"53.0511","PERIAPSIS":"546.828","MEAN_MOTION":"15.06378882","GP_ID":"224556690","OBJECT_NAME":"STARLINK-2312","COUNTRY_CODE":"US"}];
